[{"OBJECT_NAME":"STARLINK-36035","OBJECT_ID":"2025-298H","EPOCH":"2026-03-09T22:04:54.591456","MEAN_MOTION":14.99141738,"ECCENTRICITY":0.0002157,"INCLINATION":70.0024,"RA_OF_ASC_NODE":13.8096,"ARG_OF_PERICENTER":277.7374,"MEAN_ANOMALY":82.3541,"EPHEMERIS_TYPE":0,"CLASSIFICATION_TYPE":"U","NORAD_CAT_ID":67082,"ELEMENT_SET_NO":999,"REV_AT_EPOCH":1325,"BSTAR":0.00054139033,"MEAN_MOTION_DOT":6.509e-5,"MEAN_MOTION_DDOT":0},{"OBJECT_NAME":"COSMOS 2251 DEB","OBJECT_ID":"1993-036BFE","EPOCH":"2026-03-07T11:17:48.105024","MEAN_MOTION":15.02528382,"ECCENTRICITY":0.00920663,"INCLINATION":74.0305,"RA_OF_ASC_NODE":348.6467,"ARG_OF_PERICENTER":45.7,"MEAN_ANOMALY":315.169,"EPHEMERIS_TYPE":0,"CLASSIFICATION_TYPE":"U","NORAD_CAT_ID":37084,"ELEMENT_SET_NO":999,"REV_AT_EPOCH":67539,"BSTAR":0.00092223433,"MEAN_MOTION_DOT":0.00013425,"MEAN_MOTION_DDOT":0}]
